IRIDIUM 126             
1 42809U 17039G   23263.45878377  .00000964  00000+0  33696-3 0  9996
2 42809  86.3956  51.8438 0002341  90.5698 269.5766 14.34218039326511
IRIDIUM 124             
1 42810U 17039H   23263.33105463  .00000720  00000+0  20799-3 0  9994
2 42810  86.4550 348.6784 0002011  94.3212 265.8219 14.43284765330755
IRIDIUM 128             
1 42811U 17039J   23263.79836714  .00000171  00000+0  53919-4 0  9996
2 42811  86.3912  83.2502 0002194  85.8467 274.2979 14.34219170326598
IRIDIUM 121             
1 42812U 17039K   23263.68712042  .00000506  00000+0  17373-3 0  9997
2 42812  86.3958  51.7698 0002174  92.4650 267.6795 14.34218255326541
IRIDIUM 133             
1 42955U 17061A   23263.76030886  .00000164  00000+0  51556-4 0  9990
2 42955  86.3913  83.3595 0002331  87.9593 272.1870 14.34219009311386
IRIDIUM 100             
1 42956U 17061B   23263.54465928  .00000164  00000+0  51375-4 0  9995
2 42956  86.3911  83.3920 0002212  85.3416 274.8033 14.34216948311357
IRIDIUM 122             
1 42957U 17061C   23263.79202322 -.00000137  00000+0 -56074-4 0  9993
2 42957  86.3911  83.2860 0002129  83.8298 276.3141 14.34217076311392
IRIDIUM 129             
1 42958U 17061D   23263.60809359  .00000160  00000+0  50236-4 0  9995
2 42958  86.3912  83.4196 0002250  86.9122 273.2331 14.34219458311385
